STARLINK-3190           
1 49766U 21115AU  26068.45620761 -.00001128  00000+0 -52808-4 0  9995
2 49766  53.2153 140.1784 0001390  86.6291 273.4860 15.08838372235648
2022-023A               
1 51946U 22023A   26066.38437076  .00004303  00000+0  19500-3 0  9999
2 51946  63.4765 256.0240 0098533 341.4326  18.3199 15.18202647222269
